SWAYAM                  
1 41607U 16040J   21266.71719512  .00003963  00000-0  15458-3 0  9996
2 41607  97.2580 319.9537 0012094 359.0401   1.0813 15.26432861292033
FLOCK 2P-9              
1 41610U 16040M   21266.91336020  .00004148  00000-0  15196-3 0  9996
2 41610  97.2709 326.3020 0008763 340.1902  19.8996 15.28528066292285
FLOCK 2P-8              
1 41613U 16040Q   21266.74854809  .00004196  00000-0  15398-3 0  9997
2 41613  97.2756 327.0585 0008907 350.6760   9.4313 15.28460098292426
FLOCK 2P-3              
1 41618U 16040V   21266.92144400  .00004468  00000-0  16353-3 0  9995
2 41618  97.2775 327.6342 0008635 350.9808   9.1276 15.28517093292459
BEESAT-4                
1 41619U 16040W   21266.89904682  .00003799  00000-0  15010-3 0  9993
2 41619  97.2592 320.2104 0009979 353.2130   6.8972 15.26056681280024
MUOS-5                  
1 41622U 16041A   21266.65589306 -.00000176  00000-0  00000-0 0  9991
2 41622   6.2311 303.0947 0203961 229.4073 321.3202  1.00272255 19764
SJ 16-02                
1 41634U 16043A   21266.88445876  .00000130  00000-0  18055-4 0  9996
2 41634  75.0025 286.1176 0008873 261.0676  98.9513 14.85845215284062
TIANTONG-1 1            
1 41725U 16048A   21266.80882713 -.00000326  00000-0  00000-0 0  9994
2 41725   2.4497 347.0329 0001991 241.2593 167.0945  1.00268143 18951
GAOFEN 3                
1 41727U 16049A   21266.91815733 -.00000006  00000-0  11395-4 0  9995
2 41727  98.4114 274.0223 0001731  62.8943 297.2430 14.42213492269673
JCSAT-16                
1 41729U 16050A   21266.92109983 -.00000259  00000-0  00000-0 0  9990
2 41729   0.0384  98.9526 0001393  17.8576   1.7155  1.00270983 18759
QSS (MOZI)              
1 41731U 16051A   21266.89481983  .00000635  00000-0  27684-4 0  9991
2 41731  97.3402 177.6480 0013304 163.0864 261.4857 15.25696279284217
USA 270                 
1 41744U 16052A   21264.74589909  .00000135  00000-0  00000+0 0  9998
2 41744   0.0228 209.5737 0001472  42.3351  51.0122  1.00130986  1391
USA 271                 
1 41745U 16052B   21264.68545692 -.00000229  00000-0  00000+0 0  9998
2 41745   1.1752  95.0788 0003661  48.1472 194.8242  1.00176531  1395
INTELSAT 36 (IS-36)     
1 41747U 16053A   21266.90609831 -.00000032  00000-0  00000-0 0  9997
2 41747   0.0133 181.2289 0002476 192.7558  23.6646  1.00269891 18641
INTELSAT 33E (IS-33E)   
1 41748U 16053B   21266.90435395  .00000041  00000-0  00000-0 0  9999
2 41748   0.0369   4.6755 0001947 183.0365 200.8193  1.00271862 18928
INSAT-3DR               
1 41752U 16054A   21266.69189060 -.00000086  00000-0  00000-0 0  9996
2 41752   0.0722  95.0769 0011637 167.0869  63.6793  1.00272704 18481
PERUSAT 1               
1 41770U 16058A   21266.91719014  .00000001  00000-0  10049-4 0  9997
2 41770  98.1866 339.3640 0001385  81.3456 278.7890 14.58553570267314
SKYSAT-C4               
1 41771U 16058B   21266.74814679  .00003611  00000-0  93835-4 0  9996
2 41771  97.1575 333.4691 0001762 103.4393 256.7049 15.39576261279909
SKYSAT-C5               
1 41772U 16058C   21266.92816660  .00001310  00000-0  55680-4 0  9999
2 41772  97.3040 332.4945 0001988  90.8652 269.2814 15.24757813279140
SKYSAT-C2               
1 41773U 16058D   21266.91371018  .00003556  00000-0  92128-4 0  9994
2 41773  97.1581 333.9959 0002569 100.3829 259.7707 15.39676129279959
SKYSAT-C3               
1 41774U 16058E   21266.93081279  .00003580  00000-0  93028-4 0  9991
2 41774  97.1577 333.9453 0001820 102.3435 257.8015 15.39586458279943
PISAT                   
1 41784U 16059B   21266.88491385  .00000148  00000-0  37219-4 0  9997
2 41784  97.9571 315.0765 0030583 292.6324  67.1645 14.63661345266695
ALSAT 1B                
1 41785U 16059C   21266.86162044 -.00000002  00000-0  87404-5 0  9995
2 41785  97.9494 313.9425 0029924 292.8242  66.9795 14.63413444266674
ALSAT 2B                
1 41786U 16059D   21266.92279542  .00000054  00000-0  18133-4 0  9993
2 41786  98.0076 331.8301 0001705 103.1073 257.0317 14.66691150267273
PATHFINDER 1            
1 41787U 16059E   21266.85053899  .00000077  00000-0  23628-4 0  9991
2 41787  97.9557 315.5417 0029383 290.9175  68.8883 14.63839141266730
CANX-7                  
1 41788U 16059F   21266.88024400  .00016037  00000-0  16850-2 0  9991
2 41788  98.2495  15.9662 0024044 227.5246 132.4020 14.89334522268502
SCATSAT 1               
1 41790U 16059H   21266.91870646  .00000020  00000-0  16481-4 0  9996
2 41790  98.3602 308.2332 0004324 310.4695  49.6121 14.50825515264420
GSAT-18                 
1 41793U 16060A   21266.69189060 -.00000086  00000-0  00000+0 0  9997
2 41793   0.0431 100.6902 0001235 312.2544 272.8766  1.00272691 18201
SKY MUSTER 2 (NBN1B)    
1 41794U 16060B   21266.84949376 -.00000252  00000-0  00000-0 0  9995
2 41794   0.0169 211.8811 0001459 332.9320 268.7250  1.00271490 18199
HIMAWARI-9              
1 41836U 16064A   21266.92048931 -.00000282  00000-0  00000-0 0  9995
2 41836   0.0129 154.9598 0001000  37.1714 282.9979  1.00272530 17870
SHIJIAN-17 (SJ-17)      
1 41838U 16065A   21266.90762350 -.00000370  00000-0  00000-0 0  9992
2 41838   1.3595  92.1222 0001353  72.9230 282.2233  1.00270702 17887
XPNAV-1                 
1 41841U 16066A   21266.98585934  .00000937  00000-0  42062-4 0  9992
2 41841  97.4119 272.8548 0015415 151.8901 237.7685 15.23573587270641
XIAOXIANG 1             
1 41842U 16066B   21266.79870750  .00001483  00000-0  61887-4 0  9998
2 41842  97.4045 274.5622 0014872 149.1228  25.3122 15.25163378270787
PINA 2A                 
1 41843U 16066C   21266.77720451  .00001390  00000-0  56573-4 0  9992
2 41843  97.4058 275.4853 0021291 166.3339   6.8598 15.26026415270822
PINA 2B                 
1 41844U 16066D   21266.82609061  .00001512  00000-0  61296-4 0  9996
2 41844  97.3987 276.0429 0015389 144.9798 333.1269 15.26090318270904
LISHUI 1-01             
1 41845U 16066E   21266.88328020  .00011539  00000-0  14091-2 0  9995
2 41845  98.7340  15.6783 0270447 177.0380 183.2536 14.60788034257761
CAS-2T & KS-1Q          
1 41847U 16066G   21266.91704910  .00000123  00000-0  29847-4 0  9991
2 41847  98.5913 326.4065 0363970 286.5038  69.6459 14.38238412256038
WORLDVIEW-4             
1 41848U 16067A   21266.70735776  .00110461  00000-0  42275-3 0  9990
2 41848  97.8010  69.4313 0008319 196.9806 163.1187 15.87110816269134
RAVAN                   
1 41849U 16067B   21266.91474357  .00000953  00000-0  83254-4 0  9996
2 41849  97.9789  31.9472 0009671 122.4967 237.7191 14.99236074266040
CELTEE 1                
1 41850U 16067C   21266.84202873  .00000164  00000-0  19353-4 0  9995
2 41850  97.9672  28.0274 0009539 136.7987 223.3984 14.97557913265847
OPTICUBE 04             
1 41851U 16067D   21266.86885171  .00000394  00000-0  39422-4 0  9990
2 41851  97.9642  27.3691 0009707 142.6630 217.5268 14.97171214265811
AEROCUBE 8D             
1 41852U 16067E   21266.86648608  .00000626  00000-0  59247-4 0  9998
2 41852  97.9638  27.2593 0010367 143.5498 216.6431 14.97322240265799
AEROCUBE 8C             
1 41853U 16067F   21266.84182505  .00000167  00000-0  19688-4 0  9991
2 41853  97.9647  27.0903 0010576 142.3201 217.8763 14.97296482265782
PROMETHEUS 2-1          
1 41854U 16067G   21266.61416976  .00001626  00000-0  14339-3 0  9997
2 41854  97.9647  27.5595 0011400 142.6872 217.5144 14.97838534265789
PROMETHEUS 2-3          
1 41855U 16067H   21266.87768916  .00001362  00000-0  12090-3 0  9999
2 41855  97.9648  27.8874 0011496 143.0367 217.1649 14.97854913265823
YUNHAI 1                
1 41857U 16068A   21266.94550990  .00000153  00000-0  72350-4 0  9994
2 41857  98.5769 266.7325 0017077  55.9341 304.3462 14.32641305254474
GSAT0207 (GALILEO 15)   
1 41859U 16069A   21263.91146279  .00000004  00000-0  00000-0 0  9996
2 41859  54.7386 149.0624 0003081 312.1875  47.8754  1.70472685 29902
GSAT0212 (GALILEO 16)   
1 41860U 16069B   21266.11124411  .00000008  00000-0  00000-0 0  9991
2 41860  54.7368 148.9991 0002603 352.7922   7.3001  1.70472840 30193
GSAT0213 (GALILEO 17)   
1 41861U 16069C   21265.89021668  .00000007  00000-0  00000-0 0  9995
2 41861  54.7391 149.0100 0002283 279.0093  81.0606  1.70472972 30059
GSAT0214 (GALILEO 18)   
1 41862U 16069D   21266.03730829  .00000008  00000-0  00000-0 0  9990
2 41862  54.7373 149.0008 0001460 292.7844  67.2961  1.70472902 30186
GOES 16                 
1 41866U 16071A   21266.87740355 -.00000256  00000-0  00000-0 0  9990
2 41866   0.1129  87.3483 0000992 132.1192  24.1463  1.00272731 17799
TIANLIAN 1-04           
1 41869U 16072A   21266.85594791  .00000023  00000-0  00000-0 0  9994
2 41869   0.0728 237.0917 0023513 239.8458  10.9193  1.00271500 17994
LEMUR-2-XIAOQING        
1 41871U 16062C   21266.93901055  .00006298  00000-0  22838-3 0  9996
2 41871  51.6393 198.1535 0005983  73.7096 286.4542 15.29617575269083
LEMUR-2-SOKOLSKY        
1 41872U 16062D   21266.56677539  .00007699  00000-0  27766-3 0  9994
2 41872  51.6829 208.2824 0002600 155.6659 204.4445 15.29467751268990
LEMUR-2-ANUBHAVTHAKUR   
1 41873U 16062E   21266.61755479  .00000961  00000-0  51795-4 0  9996
2 41873  51.6813 234.1252 0010078  56.0832 304.1104 15.24847315268591
LEMUR-2-WINGO           
1 41874U 16062F   21266.56581078  .00006783  00000-0  24982-3 0  9998
2 41874  51.6529 207.9875 0010797 350.0554  10.0210 15.28946106268921
GOKTURK 1A              
1 41875U 16073A   21266.90981760  .00000046  00000-0  18182-4 0  9993
2 41875  98.1558 160.3073 0001577  70.4643 289.6726 14.62760737256317
RESOURCESAT-2A          
1 41877U 16074A   21266.77685776 -.00000012  00000-0  14444-4 0  9990
2 41877  98.7484 339.8659 0002116  54.6909 305.4460 14.21615722248877
WGS F8 (USA 272)        
1 41879U 16075A   21266.83846757 -.00000210  00000-0  00000-0 0  9997
2 41879   0.0138 146.8868 0000098   0.5991 307.0755  1.00272614 17508
